[{"OBJECT_NAME":"YAOGAN-40 02B","OBJECT_ID":"2025-096B","EPOCH":"2026-03-09T23:00:58.966848","MEAN_MOTION":14.12426787,"ECCENTRICITY":0.00021775,"INCLINATION":85.9909,"RA_OF_ASC_NODE":232.3937,"ARG_OF_PERICENTER":96.5499,"MEAN_ANOMALY":263.5932,"EPHEMERIS_TYPE":0,"CLASSIFICATION_TYPE":"U","NORAD_CAT_ID":63919,"ELEMENT_SET_NO":999,"REV_AT_EPOCH":4256,"BSTAR":0.00013302659,"MEAN_MOTION_DOT":2.64e-6,"MEAN_MOTION_DDOT":0},{"OBJECT_NAME":"METEOR 1-17","OBJECT_ID":"1974-025A","EPOCH":"2026-03-09T21:29:27.439872","MEAN_MOTION":14.08893461,"ECCENTRICITY":0.00158,"INCLINATION":81.2124,"RA_OF_ASC_NODE":34.0496,"ARG_OF_PERICENTER":249.6413,"MEAN_ANOMALY":110.306,"EPHEMERIS_TYPE":0,"CLASSIFICATION_TYPE":"U","NORAD_CAT_ID":7274,"ELEMENT_SET_NO":999,"REV_AT_EPOCH":66432,"BSTAR":1.6409276e-5,"MEAN_MOTION_DOT":4.1e-7,"MEAN_MOTION_DDOT":0}]
